OBJECT_NAME,OBJECT_ID,EPOCH,MEAN_MOTION,ECCENTRICITY,INCLINATION,RA_OF_ASC_NODE,ARG_OF_PERICENTER,MEAN_ANOMALY,EPHEMERIS_TYPE,CLASSIFICATION_TYPE,NORAD_CAT_ID,ELEMENT_SET_NO,REV_AT_EPOCH,BSTAR,MEAN_MOTION_DOT,MEAN_MOTION_DDOT
ONEWEB-0572,2023-004M,2026-07-20T22:20:59.837568,13.17647609,.00020047,87.9152,359.1527,91.5542,268.5819,0,U,55151,999,17192,-.3962509E-5,.11E-6,0
ONEWEB-0573,2023-004N,2026-07-20T21:07:13.072224,13.18683928,.00027364,87.9193,328.7685,92.4028,267.7417,0,U,55152,999,17413,-.15210857E-3,-.47E-6,0
ONEWEB-0588,2023-004P,2026-07-20T20:57:30.674880,13.18686611,.00020338,87.9191,328.7692,84.8995,275.2370,0,U,55153,999,17413,.57813033E-4,.36E-6,0
ONEWEB-0598,2023-004Q,2026-07-20T21:12:08.301024,13.11415443,.00025553,87.8889,14.3585,95.8489,264.2930,0,U,55154,999,17031,-.11195363E-2,-.384E-5,0
ONEWEB-0599,2023-004R,2026-07-20T21:25:06.021984,13.17647689,.0001947,87.9152,359.1590,100.9004,259.2346,0,U,55155,999,17192,.39315631E-4,.28E-6,0
ONEWEB-0614,2023-004S,2026-07-20T21:04:48.868896,13.11415253,.00016822,87.8886,14.3673,85.6928,274.4393,0,U,55156,999,17025,-.61119456E-3,-.204E-5,0
ONEWEB-0616,2023-004T,2026-07-20T22:25:50.874240,13.17647758,.00020338,87.9153,359.1547,121.2911,238.8420,0,U,55157,999,17214,-.61651172E-4,-.11E-6,0
ONEWEB-0617,2023-004U,2026-07-20T20:47:43.075392,13.11416216,.00017862,87.8893,14.3627,80.3362,279.7968,0,U,55158,999,17027,.80560318E-3,.298E-5,0
ONEWEB-0618,2023-004V,2026-07-20T21:58:20.604000,15.13437732,.001312,86.9106,163.9395,155.3167,204.8704,0,U,55159,999,18736,.24542873E-3,.4425E-4,0
ONEWEB-0619,2023-004W,2026-07-20T21:22:40.123488,13.17647992,.00014244,87.9166,359.1472,95.3666,264.7628,0,U,55160,999,17203,.43468457E-4,.3E-6,0
ONEWEB-0620,2023-004X,2026-07-20T20:40:24.413952,13.11416146,.00020995,87.8886,14.3703,89.6083,270.5285,0,U,55161,999,17024,.12699638E-2,.463E-5,0
ONEWEB-0621,2023-004Y,2026-07-20T21:19:27.845472,13.11415879,.00016435,87.8896,14.3568,86.4566,273.6750,0,U,55162,999,17022,-.13810346E-2,-.477E-5,0
ONEWEB-0622,2023-004Z,2026-07-20T21:26:47.243040,13.11416841,.00019898,87.8898,14.3587,70.3497,289.7845,0,U,55163,999,17021,-.15822269E-2,-.548E-5,0
ONEWEB-0623,2023-004AA,2026-07-20T21:15:23.469120,13.17648466,.00014125,87.9151,359.1743,71.2178,288.9106,0,U,55164,999,17202,.7117701E-5,.16E-6,0
ONEWEB-0624,2023-004AB,2026-07-20T21:06:07.827264,13.12928441,.00017452,87.8973,343.8810,92.4941,267.6387,0,U,55165,999,17249,-.91337618E-3,-.318E-5,0
ONEWEB-0625,2023-004AC,2026-07-20T21:00:48.319200,13.17647511,.00017795,87.9154,359.1726,98.9905,261.1428,0,U,55166,999,17201,.35579098E-4,.27E-6,0
ONEWEB-0626,2023-004AD,2026-07-20T20:46:14.562912,13.17647875,.00021888,87.9153,359.1743,96.8775,263.2605,0,U,55167,999,17201,-.11612896E-3,-.32E-6,0
ONEWEB-0627,2023-004AE,2026-07-20T22:18:34.612128,13.17648767,.00015546,87.9153,359.1620,80.0078,280.1229,0,U,55168,999,17202,-.29843035E-4,.1E-7,0
ONEWEB-0628,2023-004AF,2026-07-20T20:57:17.332128,13.12438166,.00013127,87.8978,343.9565,84.2930,275.8348,0,U,55169,999,17245,-.76007666E-3,-.261E-5,0
ONEWEB-0629,2023-004AG,2026-07-20T21:43:19.959168,13.17650153,.00015666,87.9153,359.1624,97.1761,262.9548,0,U,55170,999,17202,-.11767316E-3,-.33E-6,0
ONEWEB-0631,2023-004AH,2026-07-20T20:47:48.042528,13.18686772,.00022422,87.9200,328.7400,88.3145,271.8244,0,U,55171,999,17411,-.24423013E-4,.3E-7,0
ONEWEB-0709,2023-004AJ,2026-07-20T22:15:38.303424,13.11417278,.0002725,87.8888,14.3595,95.1100,265.0339,0,U,55172,999,17029,.1603275E-2,.581E-5,0
ONEWEB-0710,2023-004AK,2026-07-20T22:03:59.707584,13.17648730,.00018583,87.9153,359.1553,88.9133,271.2212,0,U,55173,999,17202,-.29687588E-3,-.102E-5,0
ONEWEB-0711,2023-004AL,2026-07-20T21:34:06.653568,13.11417859,.00016826,87.8893,14.3539,68.3530,291.7777,0,U,55174,999,17025,-.12850215E-2,-.443E-5,0
ONEWEB-0713,2023-004AM,2026-07-20T22:00:59.275872,13.11418520,.00017462,87.8893,14.3521,79.7071,280.4254,0,U,55175,999,17024,.72648433E-3,.27E-5,0
ONEWEB-0715,2023-004AN,2026-07-20T21:53:39.705504,13.11418056,.00025186,87.8891,14.3534,87.3945,272.7472,0,U,55176,999,17028,.3531985E-5,.14E-6,0
ONEWEB-0716,2023-004AP,2026-07-20T21:54:16.417728,13.17648957,.00018235,87.9153,359.1592,100.8346,259.2991,0,U,55177,999,17202,-.3559049E-5,.11E-6,0
ONEWEB-0717,2023-004AQ,2026-07-20T21:29:57.994368,13.17648129,.00019107,87.9164,359.1535,77.8622,282.2723,0,U,55178,999,17207,.46978155E-4,.31E-6,0
ONEWEB-0719,2023-004AR,2026-07-20T21:44:32.391744,13.17647631,.000172,87.9162,359.1316,98.8073,261.3254,0,U,55179,999,17202,-.17925442E-4,.6E-7,0
ONEWEB-0530,2023-029A,2026-07-20T17:25:20.938656,13.20770090,.00017334,87.9171,267.7827,88.3461,271.7871,0,U,55796,999,16557,-.75144199E-4,-.18E-6,0
