ONEWEB-0572             
1 55151U 23004M   26201.93124812  .00000011  00000+0 -39625-5 0  9999
2 55151  87.9152 359.1527 0002004  91.5542 268.5819 13.17647609171928
ONEWEB-0573             
1 55152U 23004N   26201.88001241 -.00000047  00000+0 -15211-3 0  9997
2 55152  87.9193 328.7685 0002736  92.4028 267.7417 13.18683928174138
ONEWEB-0588             
1 55153U 23004P   26201.87327170  .00000036  00000+0  57813-4 0  9990
2 55153  87.9191 328.7692 0002033  84.8995 275.2370 13.18686611174137
ONEWEB-0598             
1 55154U 23004Q   26201.88342941 -.00000384  00000+0 -11195-2 0  9994
2 55154  87.8889  14.3585 0002555  95.8489 264.2930 13.11415443170311
ONEWEB-0599             
1 55155U 23004R   26201.89243081  .00000028  00000+0  39316-4 0  9991
2 55155  87.9152 359.1590 0001947 100.9004 259.2346 13.17647689171925
ONEWEB-0614             
1 55156U 23004S   26201.87834339 -.00000204  00000+0 -61119-3 0  9995
2 55156  87.8886  14.3673 0001682  85.6928 274.4393 13.11415253170251
ONEWEB-0616             
1 55157U 23004T   26201.93461660 -.00000011  00000+0 -61651-4 0  9994
2 55157  87.9153 359.1547 0002033 121.2911 238.8420 13.17647758172148
ONEWEB-0617             
1 55158U 23004U   26201.86647078  .00000298  00000+0  80560-3 0  9990
2 55158  87.8893  14.3627 0001786  80.3362 279.7968 13.11416216170277
ONEWEB-0618             
1 55159U 23004V   26201.91551625  .00004425  00000+0  24543-3 0  9994
2 55159  86.9106 163.9395 0013120 155.3167 204.8704 15.13437732187364
ONEWEB-0619             
1 55160U 23004W   26201.89074217  .00000030  00000+0  43468-4 0  9996
2 55160  87.9166 359.1472 0001424  95.3666 264.7628 13.17647992172030
ONEWEB-0620             
1 55161U 23004X   26201.86139368  .00000463  00000+0  12700-2 0  9996
2 55161  87.8886  14.3703 0002099  89.6083 270.5285 13.11416146170248
ONEWEB-0621             
1 55162U 23004Y   26201.88851673 -.00000477  00000+0 -13810-2 0  9999
2 55162  87.8896  14.3568 0001643  86.4566 273.6750 13.11415879170225
ONEWEB-0622             
1 55163U 23004Z   26201.89360235 -.00000548  00000+0 -15822-2 0  9994
2 55163  87.8898  14.3587 0001989  70.3497 289.7845 13.11416841170219
ONEWEB-0623             
1 55164U 23004AA  26201.88568830  .00000016  00000+0  71177-5 0  9991
2 55164  87.9151 359.1743 0001412  71.2178 288.9106 13.17648466172022
ONEWEB-0624             
1 55165U 23004AB  26201.87925726 -.00000318  00000+0 -91338-3 0  9998
2 55165  87.8973 343.8810 0001745  92.4941 267.6387 13.12928441172496
ONEWEB-0625             
1 55166U 23004AC  26201.87555925  .00000027  00000+0  35579-4 0  9990
2 55166  87.9154 359.1726 0001779  98.9905 261.1428 13.17647511172017
ONEWEB-0626             
1 55167U 23004AD  26201.86544633 -.00000032  00000+0 -11613-3 0  9994
2 55167  87.9153 359.1743 0002188  96.8775 263.2605 13.17647875172016
ONEWEB-0627             
1 55168U 23004AE  26201.92956727  .00000001  00000+0 -29843-4 0  9993
2 55168  87.9153 359.1620 0001554  80.0078 280.1229 13.17648767172020
ONEWEB-0628             
1 55169U 23004AF  26201.87311727 -.00000261  00000+0 -76008-3 0  9996
2 55169  87.8978 343.9565 0001312  84.2930 275.8348 13.12438166172454
ONEWEB-0629             
1 55170U 23004AG  26201.90509212 -.00000033  00000+0 -11767-3 0  9998
2 55170  87.9153 359.1624 0001566  97.1761 262.9548 13.17650153172022
ONEWEB-0631             
1 55171U 23004AH  26201.86652827  .00000003  00000+0 -24423-4 0  9995
2 55171  87.9200 328.7400 0002242  88.3145 271.8244 13.18686772174111
ONEWEB-0709             
1 55172U 23004AJ  26201.92752666  .00000581  00000+0  16033-2 0  9991
2 55172  87.8888  14.3595 0002725  95.1100 265.0339 13.11417278170290
ONEWEB-0710             
1 55173U 23004AK  26201.91944106 -.00000102  00000+0 -29688-3 0  9995
2 55173  87.9153 359.1553 0001858  88.9133 271.2212 13.17648730172020
ONEWEB-0711             
1 55174U 23004AL  26201.89868812 -.00000443  00000+0 -12850-2 0  9992
2 55174  87.8893  14.3539 0001682  68.3530 291.7777 13.11417859170259
ONEWEB-0713             
1 55175U 23004AM  26201.91735273  .00000270  00000+0  72648-3 0  9998
2 55175  87.8893  14.3521 0001746  79.7071 280.4254 13.11418520170248
ONEWEB-0715             
1 55176U 23004AN  26201.91226511  .00000014  00000+0  35320-5 0  9993
2 55176  87.8891  14.3534 0002518  87.3945 272.7472 13.11418056170288
ONEWEB-0716             
1 55177U 23004AP  26201.91269002  .00000011  00000+0 -35590-5 0  9993
2 55177  87.9153 359.1592 0001823 100.8346 259.2991 13.17648957172020
ONEWEB-0717             
1 55178U 23004AQ  26201.89581012  .00000031  00000+0  46978-4 0  9991
2 55178  87.9164 359.1535 0001910  77.8622 282.2723 13.17648129172072
ONEWEB-0719             
1 55179U 23004AR  26201.90593046  .00000006  00000+0 -17925-4 0  9997
2 55179  87.9162 359.1316 0001720  98.8073 261.3254 13.17647631172029
ONEWEB-0530             
1 55796U 23029A   26201.72593679 -.00000018  00000+0 -75144-4 0  9992
2 55796  87.9171 267.7827 0001733  88.3461 271.7871 13.20770090165576
